CTC2_L_00406001-01
1 10000U 23039JK  26075.70046296  .00000000  00000+0  00000-0 0  9991
2 10000 100.0000   0.0000 0000000   0.0000   0.0000 12.77881384    14
CTC2_L_00406001-02
1 10001U 23784PD  26075.70046296  .00000000  00000+0  00000-0 0  9999
2 10001 100.0000   0.0000 0000000   0.0000  90.0000 12.77881384    14
CTC2_L_00406001-03
1 10002U 24275LK  26075.70046296  .00000000  00000+0  00000-0 0  9996
2 10002 100.0000   0.0000 0000000   0.0000 180.0000 12.77881384    15
CTC2_L_00406001-04
1 10003U 22181EJ  26075.70046296  .00000000  00000+0  00000-0 0  9991
2 10003 100.0000   0.0000 0000000   0.0000 270.0000 12.77881384    16
CTC2_L_00406002-01
1 10004U 22104VH  26075.70046296  .00000000  00000+0  00000-0 0  9997
2 10004 100.0000  12.0000 0000000   0.0000  12.0000 12.77881384    14
CTC2_L_00406002-02
1 10005U 26438WE  26075.70046296  .00000000  00000+0  00000-0 0  9992
2 10005 100.0000  12.0000 0000000   0.0000 102.0000 12.77881384    15
CTC2_L_00406002-03
1 10006U 25445YL  26075.70046296  .00000000  00000+0  00000-0 0  9990
2 10006 100.0000  12.0000 0000000   0.0000 192.0000 12.77881384    15
CTC2_L_00406002-04
1 10007U 26194WL  26075.70046296  .00000000  00000+0  00000-0 0  9993
2 10007 100.0000  12.0000 0000000   0.0000 282.0000 12.77881384    16
CTC2_L_00406003-01
1 10008U 26550DA  26075.70046296  .00000000  00000+0  00000-0 0  9990
2 10008 100.0000  24.0000 0000000   0.0000  24.0000 12.77881384    14
CTC2_L_00406003-02
1 10009U 24834TD  26075.70046296  .00000000  00000+0  00000-0 0  9994
2 10009 100.0000  24.0000 0000000   0.0000 114.0000 12.77881384    15
CTC2_L_00406003-03
1 10010U 26672QO  26075.70046296  .00000000  00000+0  00000-0 0  9998
2 10010 100.0000  24.0000 0000000   0.0000 204.0000 12.77881384    17
CTC2_L_00406003-04
1 10011U 22661HQ  26075.70046296  .00000000  00000+0  00000-0 0  9993
2 10011 100.0000  24.0000 0000000   0.0000 294.0000 12.77881384    17
CTC2_L_00406004-01
1 10012U 23327QR  26075.70046296  .00000000  00000+0  00000-0 0  9994
2 10012 100.0000  36.0000 0000000   0.0000  36.0000 12.77881384    15
CTC2_L_00406004-02
1 10013U 26147XG  26075.70046296  .00000000  00000+0  00000-0 0  9998
2 10013 100.0000  36.0000 0000000   0.0000 126.0000 12.77881384    16
CTC2_L_00406004-03
1 10014U 23269NF  26075.70046296  .00000000  00000+0  00000-0 0  9991
2 10014 100.0000  36.0000 0000000   0.0000 216.0000 12.77881384    17
CTC2_L_00406004-04
1 10015U 26331ZM  26075.70046296  .00000000  00000+0  00000-0 0  9995
2 10015 100.0000  36.0000 0000000   0.0000 306.0000 12.77881384    18
CTC2_L_00406005-01
1 10016U 23228GR  26075.70046296  .00000000  00000+0  00000-0 0  9998
2 10016 100.0000  48.0000 0000000   0.0000  48.0000 12.77881384    15
CTC2_L_00406005-02
1 10017U 23892CO  26075.70046296  .00000000  00000+0  00000-0 0  9996
2 10017 100.0000  48.0000 0000000   0.0000 138.0000 12.77881384    16
CTC2_L_00406005-03
1 10018U 22079SO  26075.70046296  .00000000  00000+0  00000-0 0  9993
2 10018 100.0000  48.0000 0000000   0.0000 228.0000 12.77881384    17
CTC2_L_00406005-04
1 10019U 23877HT  26075.70046296  .00000000  00000+0  00000-0 0  9991
2 10019 100.0000  48.0000 0000000   0.0000 318.0000 12.77881384    18
CTC2_L_00406006-01
1 10020U 26426PT  26075.70046296  .00000000  00000+0  00000-0 0  9996
2 10020 100.0000  60.0000 0000000   0.0000  60.0000 12.77881384    18
CTC2_L_00406006-02
1 10021U 26860Y   26075.70046296  .00000000  00000+0  00000-0 0  9999
2 10021 100.0000  60.0000 0000000   0.0000 150.0000 12.77881384    19
CTC2_L_00406006-03
1 10022U 25110ME  26075.70046296  .00000000  00000+0  00000-0 0  9997
2 10022 100.0000  60.0000 0000000   0.0000 240.0000 12.77881384    10
CTC2_L_00406006-04
1 10023U 23129UU  26075.70046296  .00000000  00000+0  00000-0 0  9996
2 10023 100.0000  60.0000 0000000   0.0000 330.0000 12.77881384    11
CTC2_L_00406007-01
1 10024U 24265XJ  26075.70046296  .00000000  00000+0  00000-0 0  9999
2 10024 100.0000  72.0000 0000000   0.0000  72.0000 12.77881384    18
CTC2_L_00406007-02
1 10025U 24111JI  26075.70046296  .00000000  00000+0  00000-0 0  9990
2 10025 100.0000  72.0000 0000000   0.0000 162.0000 12.77881384    19
CTC2_L_00406007-03
1 10026U 22210WL  26075.70046296  .00000000  00000+0  00000-0 0  9999
2 10026 100.0000  72.0000 0000000   0.0000 252.0000 12.77881384    10
CTC2_L_00406007-04
1 10027U 24478CQ  26075.70046296  .00000000  00000+0  00000-0 0  9998
2 10027 100.0000  72.0000 0000000   0.0000 342.0000 12.77881384    11
CTC2_L_00406008-01
1 10028U 24125ET  26075.70046296  .00000000  00000+0  00000-0 0  9998
2 10028 100.0000  84.0000 0000000   0.0000  84.0000 12.77881384    18
CTC2_L_00406008-02
1 10029U 26052LB  26075.70046296  .00000000  00000+0  00000-0 0  9990
2 10029 100.0000  84.0000 0000000   0.0000 174.0000 12.77881384    19
CTC2_L_00406008-03
1 10030U 26474IB  26075.70046296  .00000000  00000+0  00000-0 0  9990
2 10030 100.0000  84.0000 0000000   0.0000 264.0000 12.77881384    11
CTC2_L_00406008-04
1 10031U 22527SQ  26075.70046296  .00000000  00000+0  00000-0 0  9996
2 10031 100.0000  84.0000 0000000   0.0000 354.0000 12.77881384    12
CTC2_L_00406009-01
1 10032U 23358RG  26075.70046296  .00000000  00000+0  00000-0 0  9990
2 10032 100.0000  96.0000 0000000   0.0000  96.0000 12.77881384    19
CTC2_L_00406009-02
1 10033U 22069FZ  26075.70046296  .00000000  00000+0  00000-0 0  9999
2 10033 100.0000  96.0000 0000000   0.0000 186.0000 12.77881384    10
CTC2_L_00406009-03
1 10034U 25916TR  26075.70046296  .00000000  00000+0  00000-0 0  9994
2 10034 100.0000  96.0000 0000000   0.0000 276.0000 12.77881384    11
CTC2_L_00406009-04
1 10035U 25927YQ  26075.70046296  .00000000  00000+0  00000-0 0  9997
2 10035 100.0000  96.0000 0000000   0.0000   6.0000 12.77881384    13
CTC2_L_00406010-01
1 10036U 26260CN  26075.70046296  .00000000  00000+0  00000-0 0  9999
2 10036 100.0000 108.0000 0000000   0.0000 108.0000 12.77881384    11
CTC2_L_00406010-02
1 10037U 24408RX  26075.70046296  .00000000  00000+0  00000-0 0  9992
2 10037 100.0000 108.0000 0000000   0.0000 198.0000 12.77881384    11
CTC2_L_00406010-03
1 10038U 24261HQ  26075.70046296  .00000000  00000+0  00000-0 0  9990
2 10038 100.0000 108.0000 0000000   0.0000 288.0000 12.77881384    12
CTC2_L_00406010-04
1 10039U 22209GA  26075.70046296  .00000000  00000+0  00000-0 0  9991
2 10039 100.0000 108.0000 0000000   0.0000  18.0000 12.77881384    14
CTC2_L_00406011-01
1 10040U 23787IZ  26075.70046296  .00000000  00000+0  00000-0 0  9995
2 10040 100.0000 120.0000 0000000   0.0000 120.0000 12.77881384    14
CTC2_L_00406011-02
1 10041U 22122FZ  26075.70046296  .00000000  00000+0  00000-0 0  9998
2 10041 100.0000 120.0000 0000000   0.0000 210.0000 12.77881384    15
CTC2_L_00406011-03
1 10042U 26244VC  26075.70046296  .00000000  00000+0  00000-0 0  9998
2 10042 100.0000 120.0000 0000000   0.0000 300.0000 12.77881384    16
CTC2_L_00406011-04
1 10043U 24028NY  26075.70046296  .00000000  00000+0  00000-0 0  9997
2 10043 100.0000 120.0000 0000000   0.0000  30.0000 12.77881384    17
CTC2_L_00406012-01
1 10044U 24799OX  26075.70046296  .00000000  00000+0  00000-0 0  9993
2 10044 100.0000 132.0000 0000000   0.0000 132.0000 12.77881384    14
CTC2_L_00406012-02
1 10045U 26789GW  26075.70046296  .00000000  00000+0  00000-0 0  9995
2 10045 100.0000 132.0000 0000000   0.0000 222.0000 12.77881384    15
CTC2_L_00406012-03
1 10046U 25536NE  26075.70046296  .00000000  00000+0  00000-0 0  9995
2 10046 100.0000 132.0000 0000000   0.0000 312.0000 12.77881384    16
CTC2_L_00406012-04
1 10047U 24945BP  26075.70046296  .00000000  00000+0  00000-0 0  9999
2 10047 100.0000 132.0000 0000000   0.0000  42.0000 12.77881384    17
CTC2_L_00406013-01
1 10048U 22756S   26075.70046296  .00000000  00000+0  00000-0 0  9998
2 10048 100.0000 144.0000 0000000   0.0000 144.0000 12.77881384    14
CTC2_L_00406013-02
1 10049U 23542AH  26075.70046296  .00000000  00000+0  00000-0 0  9993
2 10049 100.0000 144.0000 0000000   0.0000 234.0000 12.77881384    15
CTC2_L_00406013-03
1 10050U 23221BW  26075.70046296  .00000000  00000+0  00000-0 0  9999
2 10050 100.0000 144.0000 0000000   0.0000 324.0000 12.77881384    17
CTC2_L_00406013-04
1 10051U 26576IS  26075.70046296  .00000000  00000+0  00000-0 0  9996
2 10051 100.0000 144.0000 0000000   0.0000  54.0000 12.77881384    18
CTC2_L_00406014-01
1 10052U 26355CD  26075.70046296  .00000000  00000+0  00000-0 0  9992
2 10052 100.0000 156.0000 0000000   0.0000 156.0000 12.77881384    15
CTC2_L_00406014-02
1 10053U 24112BD  26075.70046296  .00000000  00000+0  00000-0 0  9992
2 10053 100.0000 156.0000 0000000   0.0000 246.0000 12.77881384    16
CTC2_L_00406014-03
1 10054U 24077UI  26075.70046296  .00000000  00000+0  00000-0 0  9993
2 10054 100.0000 156.0000 0000000   0.0000 336.0000 12.77881384    17
CTC2_L_00406014-04
1 10055U 24066AO  26075.70046296  .00000000  00000+0  00000-0 0  9992
2 10055 100.0000 156.0000 0000000   0.0000  66.0000 12.77881384    18
CTC2_L_00406015-01
1 10056U 24225OB  26075.70046296  .00000000  00000+0  00000-0 0  9990
2 10056 100.0000 168.0000 0000000   0.0000 168.0000 12.77881384    15
CTC2_L_00406015-02
1 10057U 23228YU  26075.70046296  .00000000  00000+0  00000-0 0  9993
2 10057 100.0000 168.0000 0000000   0.0000 258.0000 12.77881384    16
CTC2_L_00406015-03
1 10058U 22148SM  26075.70046296  .00000000  00000+0  00000-0 0  9994
2 10058 100.0000 168.0000 0000000   0.0000 348.0000 12.77881384    17
CTC2_L_00406015-04
1 10059U 23930B   26075.70046296  .00000000  00000+0  00000-0 0  9995
2 10059 100.0000 168.0000 0000000   0.0000  78.0000 12.77881384    18
CTC2_L_00406016-01
1 10060U 22759SB  26075.70046296  .00000000  00000+0  00000-0 0  9995
2 10060 100.0000 180.0000 0000000   0.0000 180.0000 12.77881384    18
CTC2_L_00406016-02
1 10061U 26974AW  26075.70046296  .00000000  00000+0  00000-0 0  9999
2 10061 100.0000 180.0000 0000000   0.0000 270.0000 12.77881384    19
